[
  { "city" : "Beograd", "postal_code" : 11000 },
  { "city" : "Beograd Vozdovac", "postal_code" : 11010 },
  { "city" : "Beograd Čukarica", "postal_code" : 11030 },
  { "city" : "Beograd Zvezdara", "postal_code" : 11050 },
  { "city" : "Beograd Palilula", "postal_code" : 11060 },
  { "city" : "Novi Beograd", "postal_code" : 11070 },
  { "city" : "Beograd Zemun", "postal_code" : 11080 },
  { "city" : "Beograd Rakovica", "postal_code" : 11090 },
  { "city" : "Kaluđerica", "postal_code" : 11130 },
  { "city" : "Rušanj", "postal_code" : 11194 },
  { "city" : "Borča", "postal_code" : 11211 },
  { "city" : "Ovča", "postal_code" : 11212 },
  { "city" : "Padinska Skela", "postal_code" : 11213 },
  { "city" : "Beli Potok", "postal_code" : 11223 },
  { "city" : "Vrčin", "postal_code" : 11224 },
  { "city" : "Zuce", "postal_code" : 11225 },
  { "city" : "Pinosava", "postal_code" : 11226 },
  { "city" : "Ripanj", "postal_code" : 11232 },
  { "city" : "Ralja", "postal_code" : 11233 },
  { "city" : "Mali Požarevac", "postal_code" : 11235 },
  { "city" : "Ostružnica", "postal_code" : 11251 },
  { "city" : "Sremčica", "postal_code" : 11253 },
  { "city" : "Umka", "postal_code" : 11260 },
  { "city" : "Mala Moštanica", "postal_code" : 11261 },
  { "city" : "Velika Mostanica", "postal_code" : 11262 },
  { "city" : "Surčin", "postal_code" : 11271 },
  { "city" : "Dobanovci", "postal_code" : 11272 },
  { "city" : "Boljevci", "postal_code" : 11275 },
  { "city" : "Jakovo", "postal_code" : 11276 },
  { "city" : "Ugrinovci", "postal_code" : 11277 },
  { "city" : "Bečmen", "postal_code" : 11279 },
  { "city" : "Progar", "postal_code" : 11280 },
  { "city" : "Petrovcic", "postal_code" : 11282 },
  { "city" : "Smederevo", "postal_code" : 11300 },
  { "city" : "Grocka", "postal_code" : 11306 },
  { "city" : "Boleč", "postal_code" : 11307 },
  { "city" : "Begaljica", "postal_code" : 11308 },
  { "city" : "Leštane", "postal_code" : 11309 },
  { "city" : "Lipe", "postal_code" : 11310 },
  { "city" : "Radinac", "postal_code" : 11311 },
  { "city" : "Mihajlovac", "postal_code" : 11312 },
  { "city" : "Mala Krsna", "postal_code" : 11313 },
  { "city" : "Osipaonica", "postal_code" : 11314 },
  { "city" : "Saraorci", "postal_code" : 11315 },
  { "city" : "Golobok", "postal_code" : 11316 },
  { "city" : "Lozovik", "postal_code" : 11317 },
  { "city" : "Miloševac", "postal_code" : 11318 },
  { "city" : "Krnjevo", "postal_code" : 11319 },
  { "city" : "Velika Plana", "postal_code" : 11320 },
  { "city" : "Lugavcina", "postal_code" : 11321 },
  { "city" : "Skobalj", "postal_code" : 11322 },
  { "city" : "Veliko Orašje", "postal_code" : 11323 },
  { "city" : "Staro Selo", "postal_code" : 11324 },
  { "city" : "Markovac", "postal_code" : 11325 },
  { "city" : "Donja Livadica", "postal_code" : 11326 },
  { "city" : "Rakinac", "postal_code" : 11327 },
  { "city" : "Vodanj", "postal_code" : 11328 },
  { "city" : "Vranovo", "postal_code" : 11329 },
  { "city" : "Vinča", "postal_code" : 11351 },
  { "city" : "Mladenovac", "postal_code" : 11400 },
  { "city" : "Vlaška", "postal_code" : 11406 },
  { "city" : "Selevac", "postal_code" : 11407 },
  { "city" : "Velika Krsna", "postal_code" : 11408 },
  { "city" : "Kovačevac", "postal_code" : 11409 },
  { "city" : "Ratari", "postal_code" : 11411 },
  { "city" : "Jagnjilo", "postal_code" : 11412 },
  { "city" : "Pružatovac", "postal_code" : 11413 },
  { "city" : "Velika Ivanča", "postal_code" : 11414 },
  { "city" : "Koraćica", "postal_code" : 11415 },
  { "city" : "Smederevska Palanka", "postal_code" : 11420 },
  { "city" : "Azanja", "postal_code" : 11423 },
  { "city" : "Banicina", "postal_code" : 11424 },
  { "city" : "Kusadak", "postal_code" : 11425 },
  { "city" : "Meljak", "postal_code" : 11426 },
  { "city" : "Vranić", "postal_code" : 11427 },
  { "city" : "Umčari", "postal_code" : 11430 },
  { "city" : "Kolari", "postal_code" : 11431 },
  { "city" : "Drugovac", "postal_code" : 11432 },
  { "city" : "Šepšin", "postal_code" : 11433 },
  { "city" : "Sopot", "postal_code" : 11450 },
  { "city" : "Rogača", "postal_code" : 11453 },
  { "city" : "Sibnica", "postal_code" : 11454 },
  { "city" : "Barajevo", "postal_code" : 11460 },
  { "city" : "Beljina", "postal_code" : 11461 },
  { "city" : "Veliki Borak", "postal_code" : 11462 },
  { "city" : "Obrenovac", "postal_code" : 11500 },
  { "city" : "Barič", "postal_code" : 11504 },
  { "city" : "Zabrežje", "postal_code" : 11505 },
  { "city" : "Draževac", "postal_code" : 11506 },
  { "city" : "Stubline", "postal_code" : 11507 },
  { "city" : "Grabovac", "postal_code" : 11508 },
  { "city" : "Skela", "postal_code" : 11509 },
  { "city" : "Lazarevac", "postal_code" : 11550 },
  { "city" : "Vreoci", "postal_code" : 11560 },
  { "city" : "Dudovica", "postal_code" : 11561 },
  { "city" : "Junkovac", "postal_code" : 11562 },
  { "city" : "Veliki Crljeni", "postal_code" : 11563 },
  { "city" : "Stepojevac", "postal_code" : 11564 },
  { "city" : "Barosevac", "postal_code" : 11565 },
  { "city" : "Rudovci", "postal_code" : 11566 },
  { "city" : "Mirosaljci", "postal_code" : 11567 },
  { "city" : "Požarevac", "postal_code" : 12000 },
  { "city" : "Brezane", "postal_code" : 12205 },
  { "city" : "Bradarac", "postal_code" : 12206 },
  { "city" : "Dubravica", "postal_code" : 12207 },
  { "city" : "Kostolac", "postal_code" : 12208 },
  { "city" : "Kličevac", "postal_code" : 12209 },
  { "city" : "Veliko Gradište", "postal_code" : 12220 },
  { "city" : "Majilovac", "postal_code" : 12221 },
  { "city" : "Braničevo", "postal_code" : 12222 },
  { "city" : "Golubac", "postal_code" : 12223 },
  { "city" : "Dobra", "postal_code" : 12224 },
  { "city" : "Bratinac", "postal_code" : 12225 },
  { "city" : "Topolovnik", "postal_code" : 12226 },
  { "city" : "Vinci", "postal_code" : 12229 },
  { "city" : "Brnjica", "postal_code" : 12230 },
  { "city" : "Kučevo", "postal_code" : 12240 },
  { "city" : "Neresnica", "postal_code" : 12242 },
  { "city" : "Srednjevo", "postal_code" : 12253 },
  { "city" : "Rabrovo", "postal_code" : 12254 },
  { "city" : "Duboka", "postal_code" : 12255 },
  { "city" : "Voluja", "postal_code" : 12256 },
  { "city" : "Klenje", "postal_code" : 12258 },
  { "city" : "Petrovac Na Mlavi", "postal_code" : 12300 },
  { "city" : "Ranovac", "postal_code" : 12304 },
  { "city" : "Melnica", "postal_code" : 12305 },
  { "city" : "Veliko Laole", "postal_code" : 12306 },
  { "city" : "Burovac", "postal_code" : 12307 },
  { "city" : "Šetonje", "postal_code" : 12309 },
  { "city" : "Malo Crniće", "postal_code" : 12311 },
  { "city" : "Smoljinac", "postal_code" : 12312 },
  { "city" : "Bozevac", "postal_code" : 12313 },
  { "city" : "Veliko Selo", "postal_code" : 12314 },
  { "city" : "Rašanac", "postal_code" : 12315 },
  { "city" : "Krepoljin", "postal_code" : 12316 },
  { "city" : "Osanica", "postal_code" : 12317 },
  { "city" : "Vukovac", "postal_code" : 12318 },
  { "city" : "Žagubica", "postal_code" : 12320 },
  { "city" : "Laznica", "postal_code" : 12321 },
  { "city" : "Suvi Do", "postal_code" : 12322 },
  { "city" : "Aleksandrovac", "postal_code" : 12370 },
  { "city" : "Vlaški Do", "postal_code" : 12371 },
  { "city" : "Poljana", "postal_code" : 12372 },
  { "city" : "Simićevo", "postal_code" : 12373 },
  { "city" : "Žabari", "postal_code" : 12374 },
  { "city" : "Porodin", "postal_code" : 12375 },
  { "city" : "Valjevo", "postal_code" : 14000 },
  { "city" : "Brankovina", "postal_code" : 14201 },
  { "city" : "Rajković", "postal_code" : 14202 },
  { "city" : "Dračić", "postal_code" : 14203 },
  { "city" : "Divčibare", "postal_code" : 14204 },
  { "city" : "Lelić", "postal_code" : 14205 },
  { "city" : "Poćuta", "postal_code" : 14206 },
  { "city" : "Pećka", "postal_code" : 14207 },
  { "city" : "Ub", "postal_code" : 14210 },
  { "city" : "Radljevo", "postal_code" : 14211 },
  { "city" : "Brgule", "postal_code" : 14212 },
  { "city" : "Pambukovica", "postal_code" : 14213 },
  { "city" : "Banjani", "postal_code" : 14214 },
  { "city" : "Popučke", "postal_code" : 14221 },
  { "city" : "Divci", "postal_code" : 14222 },
  { "city" : "Slovac", "postal_code" : 14223 },
  { "city" : "Lajkovac", "postal_code" : 14224 },
  { "city" : "Bogovadja", "postal_code" : 14225 },
  { "city" : "Jabučje", "postal_code" : 14226 },
  { "city" : "Ljig", "postal_code" : 14240 },
  { "city" : "Mionica", "postal_code" : 14242 },
  { "city" : "Gornja Toplica", "postal_code" : 14243 },
  { "city" : "Brezde", "postal_code" : 14244 },
  { "city" : "Slavkovica", "postal_code" : 14245 },
  { "city" : "Belanovica", "postal_code" : 14246 },
  { "city" : "Pricevic", "postal_code" : 14251 },
  { "city" : "Kamenica", "postal_code" : 14252 },
  { "city" : "Osečina", "postal_code" : 14253 },
  { "city" : "Komirić", "postal_code" : 14254 },
  { "city" : "Stave", "postal_code" : 14255 },
  { "city" : "Šabac", "postal_code" : 15000 },
  { "city" : "Mačvanski Pričinović", "postal_code" : 15211 },
  { "city" : "Drenovac", "postal_code" : 15212 },
  { "city" : "Orid", "postal_code" : 15213 },
  { "city" : "Debeljača", "postal_code" : 15214 },
  { "city" : "Provo", "postal_code" : 15215 },
  { "city" : "Koceljeva", "postal_code" : 15220 },
  { "city" : "Svileuva", "postal_code" : 15221 },
  { "city" : "Kamenica", "postal_code" : 15222 },
  { "city" : "Cerovac", "postal_code" : 15224 },
  { "city" : "Vladimirci", "postal_code" : 15225 },
  { "city" : "Draginje", "postal_code" : 15226 },
  { "city" : "Donje Crniljevo", "postal_code" : 15227 },
  { "city" : "Varna", "postal_code" : 15232 },
  { "city" : "Metlić", "postal_code" : 15233 },
  { "city" : "Tekeriš", "postal_code" : 15234 },
  { "city" : "Dobrić", "postal_code" : 15235 },
  { "city" : "Loznica", "postal_code" : 15300 },
  { "city" : "Korenita", "postal_code" : 15302 },
  { "city" : "Tršić", "postal_code" : 15303 },
  { "city" : "Petlovača", "postal_code" : 15304 },
  { "city" : "Lipolist", "postal_code" : 15305 },
  { "city" : "Prnjavor Mačvanski", "postal_code" : 15306 },
  { "city" : "Lešnica", "postal_code" : 15307 },
  { "city" : "Jadranska Lešnica", "postal_code" : 15308 },
  { "city" : "Brezjak", "postal_code" : 15309 },
  { "city" : "Ribari", "postal_code" : 15310 },
  { "city" : "Draginac", "postal_code" : 15311 },
  { "city" : "Zavlaka", "postal_code" : 15312 },
  { "city" : "Bela Crkva", "postal_code" : 15313 },
  { "city" : "Krupanj", "postal_code" : 15314 },
  { "city" : "Zajaca", "postal_code" : 15315 },
  { "city" : "Banja Koviljača", "postal_code" : 15316 },
  { "city" : "Donja Borina", "postal_code" : 15317 },
  { "city" : "Mali Zvornik", "postal_code" : 15318 },
  { "city" : "Uzovnica", "postal_code" : 15319 },
  { "city" : "Ljubovija", "postal_code" : 15320 },
  { "city" : "Radalj", "postal_code" : 15321 },
  { "city" : "Velika Reka", "postal_code" : 15322 },
  { "city" : "Donja Orovica", "postal_code" : 15323 },
  { "city" : "Drlace", "postal_code" : 15324 },
  { "city" : "Bogatić", "postal_code" : 15350 },
  { "city" : "Zminjak", "postal_code" : 15352 },
  { "city" : "Majur", "postal_code" : 15353 },
  { "city" : "Štitar", "postal_code" : 15354 },
  { "city" : "Crna Bara", "postal_code" : 15355 },
  { "city" : "Glušci", "postal_code" : 15356 },
  { "city" : "Klenje", "postal_code" : 15357 },
  { "city" : "Badovinci", "postal_code" : 15358 },
  { "city" : "Dublje", "postal_code" : 15359 },
  { "city" : "Banovo Polje", "postal_code" : 15362 },
  { "city" : "Leskovac", "postal_code" : 16000 },
  { "city" : "Manojlovce", "postal_code" : 16201 },
  { "city" : "Vučje", "postal_code" : 16203 },
  { "city" : "Miroševce", "postal_code" : 16204 },
  { "city" : "Bojnik", "postal_code" : 16205 },
  { "city" : "Kosančić", "postal_code" : 16206 },
  { "city" : "Vlasotince", "postal_code" : 16210 },
  { "city" : "Svođe", "postal_code" : 16212 },
  { "city" : "Sastav Reka", "postal_code" : 16213 },
  { "city" : "Crna Trava", "postal_code" : 16215 },
  { "city" : "Grdelica", "postal_code" : 16220 },
  { "city" : "Velika Grabovnica", "postal_code" : 16221 },
  { "city" : "Predejane", "postal_code" : 16222 },
  { "city" : "Ruplje", "postal_code" : 16223 },
  { "city" : "Lebane", "postal_code" : 16230 },
  { "city" : "Turekovac", "postal_code" : 16231 },
  { "city" : "Bosnjace", "postal_code" : 16232 },
  { "city" : "Orane", "postal_code" : 16233 },
  { "city" : "Medvedja", "postal_code" : 16240 },
  { "city" : "Gornji Brestovac", "postal_code" : 16244 },
  { "city" : "Sijarinska Banja", "postal_code" : 16246 },
  { "city" : "Tulare", "postal_code" : 16247 },
  { "city" : "Lece", "postal_code" : 16248 },
  { "city" : "Pecanjevce", "postal_code" : 16251 },
  { "city" : "Razgojna", "postal_code" : 16252 },
  { "city" : "Brestovac", "postal_code" : 16253 },
  { "city" : "Vranje", "postal_code" : 17500 },
  { "city" : "Vlase", "postal_code" : 17507 },
  { "city" : "Sveti Ilija", "postal_code" : 17508 },
  { "city" : "Vladičin Han", "postal_code" : 17510 },
  { "city" : "Priboj Vranjski", "postal_code" : 17511 },
  { "city" : "Stubal", "postal_code" : 17512 },
  { "city" : "Lepenica", "postal_code" : 17513 },
  { "city" : "Džep", "postal_code" : 17514 },
  { "city" : "Bujanovac", "postal_code" : 17520 },
  { "city" : "Ristovac", "postal_code" : 17521 },
  { "city" : "Biljaca", "postal_code" : 17522 },
  { "city" : "Preševo", "postal_code" : 17523 },
  { "city" : "Klenike", "postal_code" : 17524 },
  { "city" : "Trgovište", "postal_code" : 17525 },
  { "city" : "Donji Stajevac", "postal_code" : 17526 },
  { "city" : "Muhovac", "postal_code" : 17529 },
  { "city" : "Surdulica", "postal_code" : 17530 },
  { "city" : "Jelašnica", "postal_code" : 17531 },
  { "city" : "Vlasina Okruglica", "postal_code" : 17532 },
  { "city" : "Vlasina Rid", "postal_code" : 17533 },
  { "city" : "Vlasina Stojkovićevo", "postal_code" : 17534 },
  { "city" : "Klisura", "postal_code" : 17535 },
  { "city" : "Bozica", "postal_code" : 17537 },
  { "city" : "Gornja Lisina", "postal_code" : 17538 },
  { "city" : "Bosilegrad", "postal_code" : 17540 },
  { "city" : "Vranjska Banja", "postal_code" : 17542 },
  { "city" : "Kriva Feja", "postal_code" : 17543 },
  { "city" : "Donja Ljubata", "postal_code" : 17544 },
  { "city" : "Korbevac", "postal_code" : 17545 },
  { "city" : "Bistar", "postal_code" : 17546 },
  { "city" : "Donje Tlamino", "postal_code" : 17547 },
  { "city" : "Reljan", "postal_code" : 17556 },
  { "city" : "Oraovica", "postal_code" : 17557 },
  { "city" : "Bujanovac", "postal_code" : 17567 },
  { "city" : "Niš", "postal_code" : 18000 },
  { "city" : "Lalinac", "postal_code" : 18201 },
  { "city" : "Gornja Toponica", "postal_code" : 18202 },
  { "city" : "Gornji Matejevac", "postal_code" : 18204 },
  { "city" : "Niška Banja", "postal_code" : 18205 },
  { "city" : "Jelašnica", "postal_code" : 18206 },
  { "city" : "Malča", "postal_code" : 18207 },
  { "city" : "Guševac", "postal_code" : 18208 },
  { "city" : "Medoševac", "postal_code" : 18209 },
  { "city" : "Žitkovac", "postal_code" : 18210 },
  { "city" : "Trupale", "postal_code" : 18211 },
  { "city" : "Tešica", "postal_code" : 18212 },
  { "city" : "Gredetin", "postal_code" : 18213 },
  { "city" : "Kulina", "postal_code" : 18214 },
  { "city" : "Veliko Bonjince", "postal_code" : 18215 },
  { "city" : "Korman", "postal_code" : 18216 },
  { "city" : "Ljuberadja", "postal_code" : 18217 },
  { "city" : "Grejac", "postal_code" : 18219 },
  { "city" : "Aleksinac", "postal_code" : 18220 },
  { "city" : "Draževac(kod Aleksinca)", "postal_code" : 18223 },
  { "city" : "Rutevac", "postal_code" : 18224 },
  { "city" : "Katun", "postal_code" : 18225 },
  { "city" : "Aleksinacki Rudnik", "postal_code" : 18226 },
  { "city" : "Subotinac", "postal_code" : 18227 },
  { "city" : "Luzane", "postal_code" : 18228 },
  { "city" : "Mozgovo", "postal_code" : 18229 },
  { "city" : "Soko Banja", "postal_code" : 18230 },
  { "city" : "Čitluk", "postal_code" : 18232 },
  { "city" : "Jošanica", "postal_code" : 18234 },
  { "city" : "Šarbanovac", "postal_code" : 18235 },
  { "city" : "Dugo Polje", "postal_code" : 18237 },
  { "city" : "Gadžin Han", "postal_code" : 18240 },
  { "city" : "Gornji Barbes", "postal_code" : 18241 },
  { "city" : "Donji Dušnik", "postal_code" : 18242 },
  { "city" : "Zaplanjska Toponica", "postal_code" : 18244 },
  { "city" : "Lički Hanovi", "postal_code" : 18245 },
  { "city" : "Ravna Dubrava", "postal_code" : 18246 },
  { "city" : "Novo Selo", "postal_code" : 18250 },
  { "city" : "Mramor", "postal_code" : 18251 },
  { "city" : "Merošina", "postal_code" : 18252 },
  { "city" : "Jugbogdanovac", "postal_code" : 18253 },
  { "city" : "Donje Medurovo", "postal_code" : 18254 },
  { "city" : "Pukovac", "postal_code" : 18255 },
  { "city" : "Balajinac", "postal_code" : 18257 },
  { "city" : "Jovanovac", "postal_code" : 18258 },
  { "city" : "Popovac", "postal_code" : 18260 },
  { "city" : "Pirot", "postal_code" : 18300 },
  { "city" : "Crnokliste", "postal_code" : 18304 },
  { "city" : "Visoka Rzana", "postal_code" : 18306 },
  { "city" : "Krupač", "postal_code" : 18307 },
  { "city" : "Bela Palanka", "postal_code" : 18310 },
  { "city" : "Sićevo", "postal_code" : 18311 },
  { "city" : "Ostrovica", "postal_code" : 18312 },
  { "city" : "Crvena Reka", "postal_code" : 18313 },
  { "city" : "Dolac", "postal_code" : 18314 },
  { "city" : "Babin Kal", "postal_code" : 18315 },
  { "city" : "Dimitrovgrad", "postal_code" : 18320 },
  { "city" : "Gradina", "postal_code" : 18321 },
  { "city" : "Sukovo", "postal_code" : 18322 },
  { "city" : "Smilovci", "postal_code" : 18323 },
  { "city" : "Kamenica", "postal_code" : 18324 },
  { "city" : "Poganovo", "postal_code" : 18326 },
  { "city" : "Babusnica", "postal_code" : 18330 },
  { "city" : "Strelac", "postal_code" : 18332 },
  { "city" : "Zvonce", "postal_code" : 18333 },
  { "city" : "Temska", "postal_code" : 18355 },
  { "city" : "Svrljig", "postal_code" : 18360 },
  { "city" : "Palilula", "postal_code" : 18363 },
  { "city" : "Prekonoga", "postal_code" : 18365 },
  { "city" : "Niševac", "postal_code" : 18366 },
  { "city" : "Burdimo", "postal_code" : 18368 },
  { "city" : "Prokuplje", "postal_code" : 18400 },
  { "city" : "Velika Plana", "postal_code" : 18403 },
  { "city" : "Donja Rečica", "postal_code" : 18404 },
  { "city" : "Džigolj", "postal_code" : 18405 },
  { "city" : "Dubovo", "postal_code" : 18406 },
  { "city" : "Žitni Potok", "postal_code" : 18407 },
  { "city" : "Dobri Do", "postal_code" : 18408 },
  { "city" : "Kruševica", "postal_code" : 18409 },
  { "city" : "Doljevac", "postal_code" : 18410 },
  { "city" : "Belotinac", "postal_code" : 18411 },
  { "city" : "Žitoradja", "postal_code" : 18412 },
  { "city" : "Pejkovac", "postal_code" : 18413 },
  { "city" : "Donje Crnatovo", "postal_code" : 18414 },
  { "city" : "Malošište", "postal_code" : 18415 },
  { "city" : "Cecina", "postal_code" : 18417 },
  { "city" : "Blace", "postal_code" : 18420 },
  { "city" : "Donja Trnava", "postal_code" : 18421 },
  { "city" : "Mala Plana", "postal_code" : 18423 },
  { "city" : "Beloljin", "postal_code" : 18424 },
  { "city" : "Gornja Draguša", "postal_code" : 18425 },
  { "city" : "Barbatovac", "postal_code" : 18426 },
  { "city" : "Kuršumlija", "postal_code" : 18430 },
  { "city" : "Barlovo", "postal_code" : 18432 },
  { "city" : "Prolom", "postal_code" : 18433 },
  { "city" : "Kuršumlijska Banja", "postal_code" : 18435 },
  { "city" : "Merćez", "postal_code" : 18436 },
  { "city" : "Lukovo", "postal_code" : 18437 },
  { "city" : "Zuc", "postal_code" : 18438 },
  { "city" : "Rača", "postal_code" : 18440 },
  { "city" : "Merdare", "postal_code" : 18445 },
  { "city" : "Zaječar", "postal_code" : 19000 },
  { "city" : "Metovnica", "postal_code" : 19204 },
  { "city" : "Gradskovo", "postal_code" : 19205 },
  { "city" : "Veliki Izvor", "postal_code" : 19206 },
  { "city" : "Planinica", "postal_code" : 19207 },
  { "city" : "Lubnica", "postal_code" : 19208 },
  { "city" : "Mali Jasenovac", "postal_code" : 19209 },
  { "city" : "Bor", "postal_code" : 19210 },
  { "city" : "Donja Bela Reka", "postal_code" : 19213 },
  { "city" : "Rgotina", "postal_code" : 19214 },
  { "city" : "Zlot", "postal_code" : 19215 },
  { "city" : "Brestovačka Banja", "postal_code" : 19216 },
  { "city" : "Krivelj", "postal_code" : 19219 },
  { "city" : "Donji Milanovac", "postal_code" : 19220 },
  { "city" : "Klokočevac", "postal_code" : 19222 },
  { "city" : "Koprivnica", "postal_code" : 19223 },
  { "city" : "Salaš", "postal_code" : 19224 },
  { "city" : "Sikole", "postal_code" : 19225 },
  { "city" : "Zvezdan", "postal_code" : 19227 },
  { "city" : "Gamzigradska Banja", "postal_code" : 19228 },
  { "city" : "Borski Brestovac", "postal_code" : 19229 },
  { "city" : "Borsko Bucje", "postal_code" : 19231 },
  { "city" : "Luka", "postal_code" : 19234 },
  { "city" : "Velika Jasikova", "postal_code" : 19235 },
  { "city" : "Halovo", "postal_code" : 19236 },
  { "city" : "Majdanpek", "postal_code" : 19250 },
  { "city" : "Rudna Glava", "postal_code" : 19257 },
  { "city" : "Negotin", "postal_code" : 19300 },
  { "city" : "Štubik", "postal_code" : 19303 },
  { "city" : "Jabukovac", "postal_code" : 19304 },
  { "city" : "Urovica", "postal_code" : 19305 },
  { "city" : "Trnjane", "postal_code" : 19306 },
  { "city" : "Nikolićevo", "postal_code" : 19311 },
  { "city" : "Vražogrnac", "postal_code" : 19312 },
  { "city" : "Brusnik", "postal_code" : 19313 },
  { "city" : "Rajac", "postal_code" : 19314 },
  { "city" : "Bracevac", "postal_code" : 19315 },
  { "city" : "Kobišnica", "postal_code" : 19316 },
  { "city" : "Mokranja", "postal_code" : 19317 },
  { "city" : "Rogljevo", "postal_code" : 19318 },
  { "city" : "Kladovo", "postal_code" : 19320 },
  { "city" : "Podvrška", "postal_code" : 19321 },
  { "city" : "Mihajlovac", "postal_code" : 19322 },
  { "city" : "Brza Palanka", "postal_code" : 19323 },
  { "city" : "Slatina", "postal_code" : 19324 },
  { "city" : "Tekija", "postal_code" : 19325 },
  { "city" : "Sip", "postal_code" : 19326 },
  { "city" : "Velesnica", "postal_code" : 19328 },
  { "city" : "Korbovo", "postal_code" : 19329 },
  { "city" : "Prahovo", "postal_code" : 19330 },
  { "city" : "Radujevac", "postal_code" : 19334 },
  { "city" : "Dušanovac", "postal_code" : 19335 },
  { "city" : "Minićevo", "postal_code" : 19340 },
  { "city" : "Grljan", "postal_code" : 19341 },
  { "city" : "Grlište", "postal_code" : 19342 },
  { "city" : "Lenovac", "postal_code" : 19343 },
  { "city" : "Vratarnica", "postal_code" : 19344 },
  { "city" : "Donje Zuniće", "postal_code" : 19345 },
  { "city" : "Mali Izvor", "postal_code" : 19347 },
  { "city" : "Knjaževac", "postal_code" : 19350 },
  { "city" : "Donja Kamenica", "postal_code" : 19352 },
  { "city" : "Kalna", "postal_code" : 19353 },
  { "city" : "Podvis", "postal_code" : 19362 },
  { "city" : "Beli Potok", "postal_code" : 19366 },
  { "city" : "Vasilj", "postal_code" : 19367 },
  { "city" : "Bucje", "postal_code" : 19369 },
  { "city" : "Boljevac", "postal_code" : 19370 },
  { "city" : "Lukovo", "postal_code" : 19371 },
  { "city" : "Bogovina", "postal_code" : 19372 },
  { "city" : "Šarbanovac", "postal_code" : 19373 },
  { "city" : "Krivi Vir", "postal_code" : 19375 },
  { "city" : "Sumrakovac", "postal_code" : 19376 },
  { "city" : "Savinac", "postal_code" : 19377 },
  { "city" : "Osnić", "postal_code" : 19378 },
  { "city" : "Šarbanovac Timok", "postal_code" : 19379 },
  { "city" : "Novi Sad", "postal_code" : 21000 },
  { "city" : "Petrovaradin", "postal_code" : 21131 },
  { "city" : "Rumenka", "postal_code" : 21201 },
  { "city" : "Veternik", "postal_code" : 21203 },
  { "city" : "Sremski Karlovci", "postal_code" : 21205 },
  { "city" : "Stari Ledinci", "postal_code" : 21206 },
  { "city" : "Ledinci", "postal_code" : 21207 },
  { "city" : "Sremska Kamenica", "postal_code" : 21208 },
  { "city" : "Bukovac", "postal_code" : 21209 },
  { "city" : "Kisač", "postal_code" : 21211 },
  { "city" : "Stepanovićevo", "postal_code" : 21212 },
  { "city" : "Zmajevo", "postal_code" : 21213 },
  { "city" : "Sirig", "postal_code" : 21214 },
  { "city" : "Turija", "postal_code" : 21215 },
  { "city" : "Nadalj", "postal_code" : 21216 },
  { "city" : "Bačko Gradište", "postal_code" : 21217 },
  { "city" : "Bečej", "postal_code" : 21220 },
  { "city" : "Radičević", "postal_code" : 21225 },
  { "city" : "Bačko Petrovo Selo", "postal_code" : 21226 },
  { "city" : "Mileševo", "postal_code" : 21227 },
  { "city" : "Žabalj", "postal_code" : 21230 },
  { "city" : "Čenej", "postal_code" : 21233 },
  { "city" : "Bački Jarak", "postal_code" : 21234 },
  { "city" : "Temerin", "postal_code" : 21235 },
  { "city" : "Gospođinci", "postal_code" : 21237 },
  { "city" : "Čurug", "postal_code" : 21238 },
  { "city" : "Đurdjevo", "postal_code" : 21239 },
  { "city" : "Titel", "postal_code" : 21240 },
  { "city" : "Kać", "postal_code" : 21241 },
  { "city" : "Budisava", "postal_code" : 21242 },
  { "city" : "Kovilj", "postal_code" : 21243 },
  { "city" : "Šajkaš", "postal_code" : 21244 },
  { "city" : "Mošorin", "postal_code" : 21245 },
  { "city" : "Vilovo", "postal_code" : 21246 },
  { "city" : "Gardinovci", "postal_code" : 21247 },
  { "city" : "Lok", "postal_code" : 21248 },
  { "city" : "Rakovac", "postal_code" : 21299 },
  { "city" : "Beočin", "postal_code" : 21300 },
  { "city" : "Čerević", "postal_code" : 21311 },
  { "city" : "Banoštor", "postal_code" : 21312 },
  { "city" : "Susek", "postal_code" : 21313 },
  { "city" : "Neštin", "postal_code" : 21314 },
  { "city" : "Lug", "postal_code" : 21315 },
  { "city" : "Bačka Palanka", "postal_code" : 21400 },
  { "city" : "Futog", "postal_code" : 21410 },
  { "city" : "Begeč", "postal_code" : 21411 },
  { "city" : "Gložan", "postal_code" : 21412 },
  { "city" : "Čelarevo", "postal_code" : 21413 },
  { "city" : "Bač", "postal_code" : 21420 },
  { "city" : "Karađorđevo", "postal_code" : 21421 },
  { "city" : "Mladenovo", "postal_code" : 21422 },
  { "city" : "Obrovac", "postal_code" : 21423 },
  { "city" : "Tovariševo", "postal_code" : 21424 },
  { "city" : "Selenča", "postal_code" : 21425 },
  { "city" : "Vajska", "postal_code" : 21426 },
  { "city" : "Bodjani", "postal_code" : 21427 },
  { "city" : "Plavna", "postal_code" : 21428 },
  { "city" : "Bačko Novo Selo", "postal_code" : 21429 },
  { "city" : "Nova Gajdobra", "postal_code" : 21431 },
  { "city" : "Gajdobra", "postal_code" : 21432 },
  { "city" : "Silbaš", "postal_code" : 21433 },
  { "city" : "Parage", "postal_code" : 21434 },
  { "city" : "Vrbas", "postal_code" : 21460 },
  { "city" : "Bačko Dobro Polje", "postal_code" : 21465 },
  { "city" : "Kucura", "postal_code" : 21466 },
  { "city" : "Savino Selo", "postal_code" : 21467 },
  { "city" : "Despotovo", "postal_code" : 21468 },
  { "city" : "Pivnice", "postal_code" : 21469 },
  { "city" : "Bački Petrovac", "postal_code" : 21470 },
  { "city" : "Ravno Selo", "postal_code" : 21471 },
  { "city" : "Kulpin", "postal_code" : 21472 },
  { "city" : "Maglić", "postal_code" : 21473 },
  { "city" : "Srbobran", "postal_code" : 21480 },
  { "city" : "Sremska Mitrovica", "postal_code" : 22000 },
  { "city" : "Zasavica", "postal_code" : 22201 },
  { "city" : "Mačvanska Mitrovica", "postal_code" : 22202 },
  { "city" : "Noćaj", "postal_code" : 22203 },
  { "city" : "Salaš Noćajski", "postal_code" : 22204 },
  { "city" : "Ravnje", "postal_code" : 22205 },
  { "city" : "Radenković", "postal_code" : 22206 },
  { "city" : "Ležimir", "postal_code" : 22207 },
  { "city" : "Mandjelos", "postal_code" : 22208 },
  { "city" : "Veliki Radinci", "postal_code" : 22211 },
  { "city" : "Bešenovo", "postal_code" : 22212 },
  { "city" : "Grgurevci", "postal_code" : 22213 },
  { "city" : "Bosut", "postal_code" : 22217 },
  { "city" : "Laćarak", "postal_code" : 22221 },
  { "city" : "Martinci", "postal_code" : 22222 },
  { "city" : "Kuzmin", "postal_code" : 22223 },
  { "city" : "Kukujevci", "postal_code" : 22224 },
  { "city" : "Bacinci", "postal_code" : 22225 },
  { "city" : "Erdevik", "postal_code" : 22230 },
  { "city" : "Čalma", "postal_code" : 22231 },
  { "city" : "Divoš", "postal_code" : 22232 },
  { "city" : "Šid", "postal_code" : 22240 },
  { "city" : "Vasica", "postal_code" : 22241 },
  { "city" : "Berkasovo", "postal_code" : 22242 },
  { "city" : "Sot", "postal_code" : 22243 },
  { "city" : "Adasevci", "postal_code" : 22244 },
  { "city" : "Morović", "postal_code" : 22245 },
  { "city" : "Višnjićevo", "postal_code" : 22246 },
  { "city" : "Sremska Rača", "postal_code" : 22247 },
  { "city" : "Jamena", "postal_code" : 22248 },
  { "city" : "Ilinci", "postal_code" : 22250 },
  { "city" : "Batrovci", "postal_code" : 22251 },
  { "city" : "Bingula", "postal_code" : 22253 },
  { "city" : "Bikić Do", "postal_code" : 22254 },
  { "city" : "Ljuba", "postal_code" : 22255 },
  { "city" : "Molovin", "postal_code" : 22256 },
  { "city" : "Privina Glava", "postal_code" : 22257 },
  { "city" : "Gibarac", "postal_code" : 22258 },
  { "city" : "Stara Pazova", "postal_code" : 22300 },
  { "city" : "Banovci Dunav", "postal_code" : 22303 },
  { "city" : "Novi Banovci", "postal_code" : 22304 },
  { "city" : "Stari Banovci", "postal_code" : 22305 },
  { "city" : "Belegiš", "postal_code" : 22306 },
  { "city" : "Surduk", "postal_code" : 22307 },
  { "city" : "Golubinci", "postal_code" : 22308 },
  { "city" : "Šimanovci", "postal_code" : 22310 },
  { "city" : "Vojka", "postal_code" : 22313 },
  { "city" : "Krnješevci", "postal_code" : 22314 },
  { "city" : "Inđija", "postal_code" : 22320 },
  { "city" : "Ljukovo", "postal_code" : 22321 },
  { "city" : "Novi Karlovci", "postal_code" : 22322 },
  { "city" : "Novi Slankamen", "postal_code" : 22323 },
  { "city" : "Beška", "postal_code" : 22324 },
  { "city" : "Krčedin", "postal_code" : 22325 },
  { "city" : "Čortanovci", "postal_code" : 22326 },
  { "city" : "Maradik", "postal_code" : 22327 },
  { "city" : "Krušedol", "postal_code" : 22328 },
  { "city" : "Stari Slankamen", "postal_code" : 22329 },
  { "city" : "Nova Pazova", "postal_code" : 22330 },
  { "city" : "Ruma", "postal_code" : 22400 },
  { "city" : "Putinci", "postal_code" : 22404 },
  { "city" : "Stejanovci", "postal_code" : 22405 },
  { "city" : "Irig", "postal_code" : 22406 },
  { "city" : "Vrdnik", "postal_code" : 22408 },
  { "city" : "Jazak", "postal_code" : 22409 },
  { "city" : "Pećinci", "postal_code" : 22410 },
  { "city" : "Kraljevci", "postal_code" : 22411 },
  { "city" : "Dobrinci", "postal_code" : 22412 },
  { "city" : "Sremski Mihaljevci", "postal_code" : 22413 },
  { "city" : "Subotište", "postal_code" : 22414 },
  { "city" : "Ogar", "postal_code" : 22416 },
  { "city" : "Obrez", "postal_code" : 22417 },
  { "city" : "Asanja", "postal_code" : 22418 },
  { "city" : "Kupinovo", "postal_code" : 22419 },
  { "city" : "Platičevo", "postal_code" : 22420 },
  { "city" : "Budjanovci", "postal_code" : 22421 },
  { "city" : "Nikinci", "postal_code" : 22422 },
  { "city" : "Grabovci", "postal_code" : 22423 },
  { "city" : "Klenak", "postal_code" : 22424 },
  { "city" : "Šašinci", "postal_code" : 22425 },
  { "city" : "Hrtkovci", "postal_code" : 22427 },
  { "city" : "Popinci", "postal_code" : 22428 },
  { "city" : "Voganj", "postal_code" : 22429 },
  { "city" : "Vitojevci", "postal_code" : 22431 },
  { "city" : "Sibač", "postal_code" : 22440 },
  { "city" : "Dec", "postal_code" : 22441 },
  { "city" : "Prhovo", "postal_code" : 22442 },
  { "city" : "Karlovčić", "postal_code" : 22443 },
  { "city" : "Zrenjanin", "postal_code" : 23000 },
  { "city" : "Mihajlovo", "postal_code" : 23202 },
  { "city" : "Ečka", "postal_code" : 23203 },
  { "city" : "Stajićevo", "postal_code" : 23204 },
  { "city" : "Belo Blato", "postal_code" : 23205 },
  { "city" : "Muzlja", "postal_code" : 23206 },
  { "city" : "Aradac", "postal_code" : 23207 },
  { "city" : "Elemir", "postal_code" : 23208 },
  { "city" : "Taraš", "postal_code" : 23209 },
  { "city" : "Žitište", "postal_code" : 23210 },
  { "city" : "Klek", "postal_code" : 23211 },
  { "city" : "Ravni Topolovac", "postal_code" : 23212 },
  { "city" : "Banatski Dvor", "postal_code" : 23213 },
  { "city" : "Torda", "postal_code" : 23214 },
  { "city" : "Cestereg", "postal_code" : 23215 },
  { "city" : "Banatsko Karađorđevo", "postal_code" : 23216 },
  { "city" : "Aleksandrovo", "postal_code" : 23217 },
  { "city" : "Nova Crnja", "postal_code" : 23218 },
  { "city" : "Vojvoda Stepa", "postal_code" : 23219 },
  { "city" : "Srpska Crnja", "postal_code" : 23220 },
  { "city" : "Radojevo", "postal_code" : 23221 },
  { "city" : "Toba", "postal_code" : 23222 },
  { "city" : "Lukino Selo", "postal_code" : 23224 },
  { "city" : "Jaša Tomić", "postal_code" : 23230 },
  { "city" : "Krajišnik", "postal_code" : 23231 },
  { "city" : "Begejci", "postal_code" : 23232 },
  { "city" : "Srpski Itebej", "postal_code" : 23233 },
  { "city" : "Medja", "postal_code" : 23234 },
  { "city" : "Hetin", "postal_code" : 23235 },
  { "city" : "Novi Itebej", "postal_code" : 23236 },
  { "city" : "Banatsko Višnjićevo", "postal_code" : 23237 },
  { "city" : "Sečanj", "postal_code" : 23240 },
  { "city" : "Lazarevo", "postal_code" : 23241 },
  { "city" : "Banatski Despotovac", "postal_code" : 23242 },
  { "city" : "Botos", "postal_code" : 23243 },
  { "city" : "Sutjeska", "postal_code" : 23244 },
  { "city" : "Neuzina", "postal_code" : 23245 },
  { "city" : "Jarkovac", "postal_code" : 23250 },
  { "city" : "Banatska Dubica", "postal_code" : 23251 },
  { "city" : "Boka", "postal_code" : 23252 },
  { "city" : "Konak", "postal_code" : 23253 },
  { "city" : "Surjan", "postal_code" : 23254 },
  { "city" : "Zlatica", "postal_code" : 23255 },
  { "city" : "Perlez", "postal_code" : 23260 },
  { "city" : "Lukićevo", "postal_code" : 23261 },
  { "city" : "Tomaševac", "postal_code" : 23262 },
  { "city" : "Orlovat", "postal_code" : 23263 },
  { "city" : "Farkaždin", "postal_code" : 23264 },
  { "city" : "Knićanin", "postal_code" : 23265 },
  { "city" : "Ćenta", "postal_code" : 23266 },
  { "city" : "Melenci", "postal_code" : 23270 },
  { "city" : "Kumane", "postal_code" : 23271 },
  { "city" : "Novi Bečej", "postal_code" : 23272 },
  { "city" : "Novo Miloševo", "postal_code" : 23273 },
  { "city" : "Bocar", "postal_code" : 23274 },
  { "city" : "Kikinda", "postal_code" : 23300 },
  { "city" : "Mokrin", "postal_code" : 23305 },
  { "city" : "Nakovo", "postal_code" : 23311 },
  { "city" : "Banatsko Veliko Selo", "postal_code" : 23312 },
  { "city" : "Novi Kozarci", "postal_code" : 23313 },
  { "city" : "Rusko Selo", "postal_code" : 23314 },
  { "city" : "Banatska Topola", "postal_code" : 23315 },
  { "city" : "Basaid", "postal_code" : 23316 },
  { "city" : "Čoka", "postal_code" : 23320 },
  { "city" : "Iđos", "postal_code" : 23323 },
  { "city" : "Sajan", "postal_code" : 23324 },
  { "city" : "Padej", "postal_code" : 23325 },
  { "city" : "Ostojićevo", "postal_code" : 23326 },
  { "city" : "Jazovo", "postal_code" : 23327 },
  { "city" : "Crna Bara", "postal_code" : 23328 },
  { "city" : "Vrbica", "postal_code" : 23329 },
  { "city" : "Novi Kneževac", "postal_code" : 23330 },
  { "city" : "Sanad", "postal_code" : 23331 },
  { "city" : "Banatsko Arandjelovo", "postal_code" : 23332 },
  { "city" : "Majdan", "postal_code" : 23333 },
  { "city" : "Srpski Krstur", "postal_code" : 23334 },
  { "city" : "Đala", "postal_code" : 23335 },
  { "city" : "Subotica", "postal_code" : 24000 },
  { "city" : "Kelebija", "postal_code" : 24104 },
  { "city" : "Kelebija-granični prelaz", "postal_code" : 24205 },
  { "city" : "Bikovo", "postal_code" : 24206 },
  { "city" : "Orom", "postal_code" : 24207 },
  { "city" : "Bajmok", "postal_code" : 24210 },
  { "city" : "Mišićevo", "postal_code" : 24211 },
  { "city" : "Đurđin", "postal_code" : 24213 },
  { "city" : "Tavankut", "postal_code" : 24214 },
  { "city" : "Ljutovo", "postal_code" : 24215 },
  { "city" : "Mala Bosna", "postal_code" : 24217 },
  { "city" : "Čantavir", "postal_code" : 24220 },
  { "city" : "Višnjevac", "postal_code" : 24222 },
  { "city" : "Novi Zednik", "postal_code" : 24223 },
  { "city" : "Stari Žednik", "postal_code" : 24224 },
  { "city" : "Bačka Topola", "postal_code" : 24300 },
  { "city" : "Karadjordjevo", "postal_code" : 24308 },
  { "city" : "Mali Beograd", "postal_code" : 24309 },
  { "city" : "Njegoševo", "postal_code" : 24311 },
  { "city" : "Gunaroš", "postal_code" : 24312 },
  { "city" : "Pobeda", "postal_code" : 24313 },
  { "city" : "Mali Idjoš", "postal_code" : 24321 },
  { "city" : "Lovćenac", "postal_code" : 24322 },
  { "city" : "Feketić", "postal_code" : 24323 },
  { "city" : "Panonija", "postal_code" : 24330 },
  { "city" : "Bajša", "postal_code" : 24331 },
  { "city" : "Stara Moravica", "postal_code" : 24340 },
  { "city" : "Krivaja", "postal_code" : 24341 },
  { "city" : "Pačir", "postal_code" : 24342 },
  { "city" : "Bački Sokolac", "postal_code" : 24343 },
  { "city" : "Oresković", "postal_code" : 24344 },
  { "city" : "Novo Orahovo", "postal_code" : 24351 },
  { "city" : "Tornjoš", "postal_code" : 24352 },
  { "city" : "Senta", "postal_code" : 24400 },
  { "city" : "Gornji Breg", "postal_code" : 24406 },
  { "city" : "Kevi", "postal_code" : 24407 },
  { "city" : "Bogaras", "postal_code" : 24408 },
  { "city" : "Horgoš", "postal_code" : 24410 },
  { "city" : "Horgoš Granični Prelaz", "postal_code" : 24411 },
  { "city" : "Palić", "postal_code" : 24413 },
  { "city" : "Hajdukovo", "postal_code" : 24414 },
  { "city" : "Bački Vinogradi", "postal_code" : 24415 },
  { "city" : "Male Pijace", "postal_code" : 24416 },
  { "city" : "Martonoš", "postal_code" : 24417 },
  { "city" : "Kanjiža", "postal_code" : 24420 },
  { "city" : "Adorjan", "postal_code" : 24425 },
  { "city" : "Tresnjevac", "postal_code" : 24426 },
  { "city" : "Totovo Selo", "postal_code" : 24427 },
  { "city" : "Ada", "postal_code" : 24430 },
  { "city" : "Mol", "postal_code" : 24435 },
  { "city" : "Utrine", "postal_code" : 24437 },
  { "city" : "Sombor", "postal_code" : 25000 },
  { "city" : "Conoplja", "postal_code" : 25210 },
  { "city" : "Svetozar Miletić", "postal_code" : 25211 },
  { "city" : "Aleksa Santic", "postal_code" : 25212 },
  { "city" : "Crvenka", "postal_code" : 25220 },
  { "city" : "Kljajićevo", "postal_code" : 25221 },
  { "city" : "Telečka", "postal_code" : 25222 },
  { "city" : "Sivac", "postal_code" : 25223 },
  { "city" : "Nova Crvenka", "postal_code" : 25224 },
  { "city" : "Krusčić", "postal_code" : 25225 },
  { "city" : "Kula", "postal_code" : 25230 },
  { "city" : "Lipar", "postal_code" : 25232 },
  { "city" : "Ruski Krstur", "postal_code" : 25233 },
  { "city" : "Lalić", "postal_code" : 25234 },
  { "city" : "Stapar", "postal_code" : 25240 },
  { "city" : "Bački Brestovac", "postal_code" : 25242 },
  { "city" : "Doroslovo", "postal_code" : 25243 },
  { "city" : "Srpski Miletić", "postal_code" : 25244 },
  { "city" : "Bogojevo", "postal_code" : 25245 },
  { "city" : "Odzaci", "postal_code" : 25250 },
  { "city" : "Bački Gracac", "postal_code" : 25252 },
  { "city" : "Ratkovo", "postal_code" : 25253 },
  { "city" : "Deronje", "postal_code" : 25254 },
  { "city" : "Karavukovo", "postal_code" : 25255 },
  { "city" : "Apatin", "postal_code" : 25260 },
  { "city" : "Kupušina", "postal_code" : 25262 },
  { "city" : "Prigrevica", "postal_code" : 25263 },
  { "city" : "Sonta", "postal_code" : 25264 },
  { "city" : "Svilojevo", "postal_code" : 25265 },
  { "city" : "Bezdan", "postal_code" : 25270 },
  { "city" : "Bački Monostor", "postal_code" : 25272 },
  { "city" : "Kolut", "postal_code" : 25274 },
  { "city" : "Bački Breg", "postal_code" : 25275 },
  { "city" : "Ridjica", "postal_code" : 25280 },
  { "city" : "Gakovo", "postal_code" : 25282 },
  { "city" : "Rastina", "postal_code" : 25283 },
  { "city" : "Stanišić", "postal_code" : 25284 },
  { "city" : "Pančevo", "postal_code" : 26000 },
  { "city" : "Jabuka", "postal_code" : 26201 },
  { "city" : "Glogonj", "postal_code" : 26202 },
  { "city" : "Sefkerin", "postal_code" : 26203 },
  { "city" : "Opovo", "postal_code" : 26204 },
  { "city" : "Baranda", "postal_code" : 26205 },
  { "city" : "Sakule", "postal_code" : 26206 },
  { "city" : "Idvor", "postal_code" : 26207 },
  { "city" : "Kovačica", "postal_code" : 26210 },
  { "city" : "Kačarevo", "postal_code" : 26212 },
  { "city" : "Crepaja", "postal_code" : 26213 },
  { "city" : "Padina", "postal_code" : 26215 },
  { "city" : "Uzdin", "postal_code" : 26216 },
  { "city" : "Kovin", "postal_code" : 26220 },
  { "city" : "Bavanište", "postal_code" : 26222 },
  { "city" : "Gaj", "postal_code" : 26223 },
  { "city" : "Dubovac", "postal_code" : 26224 },
  { "city" : "Deliblato", "postal_code" : 26225 },
  { "city" : "Mramorak", "postal_code" : 26226 },
  { "city" : "Dolovo", "postal_code" : 26227 },
  { "city" : "Skorenovac", "postal_code" : 26228 },
  { "city" : "Pločica", "postal_code" : 26229 },
  { "city" : "Omoljica", "postal_code" : 26230 },
  { "city" : "Starčevo", "postal_code" : 26232 },
  { "city" : "Ivanovo", "postal_code" : 26233 },
  { "city" : "Banatski Brestovac", "postal_code" : 26234 },
  { "city" : "Vršac", "postal_code" : 26300 },
  { "city" : "Alibunar", "postal_code" : 26310 },
  { "city" : "Banatsko Novo Selo", "postal_code" : 26314 },
  { "city" : "Vladimirovac", "postal_code" : 26315 },
  { "city" : "Devojački Bunar", "postal_code" : 26316 },
  { "city" : "Banatski Karlovac", "postal_code" : 26320 },
  { "city" : "Nikolinci", "postal_code" : 26322 },
  { "city" : "Crvena Crkva", "postal_code" : 26323 },
  { "city" : "Banatska Palanka", "postal_code" : 26324 },
  { "city" : "Banatska Subotica", "postal_code" : 26327 },
  { "city" : "Dupljaja", "postal_code" : 26328 },
  { "city" : "Kajtasovo", "postal_code" : 26329 },
  { "city" : "Uljma", "postal_code" : 26330 },
  { "city" : "Ritisevo", "postal_code" : 26331 },
  { "city" : "Vlajkovac", "postal_code" : 26332 },
  { "city" : "Pavliš", "postal_code" : 26333 },
  { "city" : "Veliko Središte", "postal_code" : 26334 },
  { "city" : "Gudurica", "postal_code" : 26335 },
  { "city" : "Kuštilj", "postal_code" : 26336 },
  { "city" : "Vatin", "postal_code" : 26337 },
  { "city" : "Vojvodinci", "postal_code" : 26338 },
  { "city" : "Bela Crkva", "postal_code" : 26340 },
  { "city" : "Izbište", "postal_code" : 26343 },
  { "city" : "Straža", "postal_code" : 26345 },
  { "city" : "Jasenovo", "postal_code" : 26346 },
  { "city" : "Grebenac", "postal_code" : 26347 },
  { "city" : "Vračev Gaj", "postal_code" : 26348 },
  { "city" : "Kusić", "postal_code" : 26349 },
  { "city" : "Samoš", "postal_code" : 26350 },
  { "city" : "Seleuš", "postal_code" : 26351 },
  { "city" : "Ilandža", "postal_code" : 26352 },
  { "city" : "Novi Kozjak", "postal_code" : 26353 },
  { "city" : "Dobrica", "postal_code" : 26354 },
  { "city" : "Plandište", "postal_code" : 26360 },
  { "city" : "Lokve", "postal_code" : 26361 },
  { "city" : "Janošik", "postal_code" : 26362 },
  { "city" : "Jermenovci", "postal_code" : 26363 },
  { "city" : "Margita", "postal_code" : 26364 },
  { "city" : "Veliki Gaj", "postal_code" : 26365 },
  { "city" : "Velika Greda", "postal_code" : 26366 },
  { "city" : "Barice", "postal_code" : 26367 },
  { "city" : "Kupinik", "postal_code" : 26368 },
  { "city" : "Hajdučica", "postal_code" : 26370 },
  { "city" : "Stari Lec", "postal_code" : 26371 },
  { "city" : "Miletićevo", "postal_code" : 26373 },
  { "city" : "Kruščica", "postal_code" : 26380 },
  { "city" : "Užice", "postal_code" : 31000 },
  { "city" : "Lunovo Selo", "postal_code" : 31203 },
  { "city" : "Karan", "postal_code" : 31204 },
  { "city" : "Sevojno", "postal_code" : 31205 },
  { "city" : "Ravni", "postal_code" : 31206 },
  { "city" : "Sirogojno", "postal_code" : 31207 },
  { "city" : "Rožanstvo", "postal_code" : 31208 },
  { "city" : "Ljubiš", "postal_code" : 31209 },
  { "city" : "Požega", "postal_code" : 31210 },
  { "city" : "Ježevica", "postal_code" : 31213 },
  { "city" : "Gornja Dobrinja", "postal_code" : 31214 },
  { "city" : "Jelen Do", "postal_code" : 31215 },
  { "city" : "Arilje", "postal_code" : 31230 },
  { "city" : "Kruščica", "postal_code" : 31233 },
  { "city" : "Brekovo", "postal_code" : 31234 },
  { "city" : "Divljaka", "postal_code" : 31236 },
  { "city" : "Roge", "postal_code" : 31237 },
  { "city" : "Bioska", "postal_code" : 31241 },
  { "city" : "Kremna", "postal_code" : 31242 },
  { "city" : "Mokra Gora", "postal_code" : 31243 },
  { "city" : "Šljivovica", "postal_code" : 31244 },
  { "city" : "Bajina Bašta", "postal_code" : 31250 },
  { "city" : "Mitrovac", "postal_code" : 31251 },
  { "city" : "Zlodol", "postal_code" : 31253 },
  { "city" : "Kostojevići", "postal_code" : 31254 },
  { "city" : "Rogačica", "postal_code" : 31255 },
  { "city" : "Perućac", "postal_code" : 31256 },
  { "city" : "Kaluđerske Bare", "postal_code" : 31257 },
  { "city" : "Bačevci", "postal_code" : 31258 },
  { "city" : "Kosjerić", "postal_code" : 31260 },
  { "city" : "Seča Reka", "postal_code" : 31262 },
  { "city" : "Varda", "postal_code" : 31263 },
  { "city" : "Ražana", "postal_code" : 31265 },
  { "city" : "Prijepolje", "postal_code" : 31300 },
  { "city" : "Brodarevo", "postal_code" : 31305 },
  { "city" : "Jabuka", "postal_code" : 31306 },
  { "city" : "Aljinovici", "postal_code" : 31307 },
  { "city" : "Čajetina", "postal_code" : 31310 },
  { "city" : "Bela Zemlja", "postal_code" : 31311 },
  { "city" : "Mačkat", "postal_code" : 31312 },
  { "city" : "Gostilje", "postal_code" : 31313 },
  { "city" : "Jablanica", "postal_code" : 31314 },
  { "city" : "Zlatibor", "postal_code" : 31315 },
  { "city" : "Draglica", "postal_code" : 31317 },
  { "city" : "Kokin Brod", "postal_code" : 31318 },
  { "city" : "Jasenovo", "postal_code" : 31319 },
  { "city" : "Nova Varoš", "postal_code" : 31320 },
  { "city" : "Bozetici", "postal_code" : 31322 },
  { "city" : "Bistrica", "postal_code" : 31325 },
  { "city" : "Priboj", "postal_code" : 31330 },
  { "city" : "Sastavci", "postal_code" : 31335 },
  { "city" : "Banja Kod Priboja", "postal_code" : 31337 },
  { "city" : "Čačak", "postal_code" : 32000 },
  { "city" : "Trbušani", "postal_code" : 32205 },
  { "city" : "Kamenica", "postal_code" : 32206 },
  { "city" : "Mrčajevci", "postal_code" : 32210 },
  { "city" : "Mojsinje", "postal_code" : 32211 },
  { "city" : "Preljina", "postal_code" : 32212 },
  { "city" : "Bresnica", "postal_code" : 32213 },
  { "city" : "Gornja Trepca", "postal_code" : 32215 },
  { "city" : "Trnava", "postal_code" : 32221 },
  { "city" : "Ježevica", "postal_code" : 32222 },
  { "city" : "Zablaće", "postal_code" : 32223 },
  { "city" : "Slatina", "postal_code" : 32224 },
  { "city" : "Goričani", "postal_code" : 32225 },
  { "city" : "Guča", "postal_code" : 32230 },
  { "city" : "Goračići", "postal_code" : 32232 },
  { "city" : "Kaona", "postal_code" : 32234 },
  { "city" : "Kotraža", "postal_code" : 32235 },
  { "city" : "Lučani", "postal_code" : 32240 },
  { "city" : "Ovčar Banja", "postal_code" : 32242 },
  { "city" : "Markovica", "postal_code" : 32243 },
  { "city" : "Ivanjica", "postal_code" : 32250 },
  { "city" : "Bukovica", "postal_code" : 32251 },
  { "city" : "Prilicki Kiseljak", "postal_code" : 32252 },
  { "city" : "Brezova", "postal_code" : 32253 },
  { "city" : "Vionica", "postal_code" : 32254 },
  { "city" : "Medjurečje", "postal_code" : 32255 },
  { "city" : "Bratljevo", "postal_code" : 32256 },
  { "city" : "Kovilje", "postal_code" : 32257 },
  { "city" : "Kušići", "postal_code" : 32258 },
  { "city" : "Bele Vode", "postal_code" : 32259 },
  { "city" : "Gornji Milanovac", "postal_code" : 32300 },
  { "city" : "Brđani", "postal_code" : 32303 },
  { "city" : "Takovo", "postal_code" : 32304 },
  { "city" : "Bersici", "postal_code" : 32305 },
  { "city" : "Gornji Banjani", "postal_code" : 32306 },
  { "city" : "Brezna", "postal_code" : 32307 },
  { "city" : "Pranjani", "postal_code" : 32308 },
  { "city" : "Šilopaj", "postal_code" : 32311 },
  { "city" : "Boljkovci", "postal_code" : 32312 },
  { "city" : "Rudnik", "postal_code" : 32313 },
  { "city" : "Ugrinovci", "postal_code" : 32314 },
  { "city" : "Vračevšnica", "postal_code" : 32315 },
  { "city" : "Kragujevac", "postal_code" : 34000 },
  { "city" : "Grosnica", "postal_code" : 34202 },
  { "city" : "Ilićevo", "postal_code" : 34203 },
  { "city" : "Divostin", "postal_code" : 34204 },
  { "city" : "Bare", "postal_code" : 34205 },
  { "city" : "Gornja Sabanta", "postal_code" : 34206 },
  { "city" : "Erdec", "postal_code" : 34207 },
  { "city" : "Marsic", "postal_code" : 34209 },
  { "city" : "Rača Kragujevačka", "postal_code" : 34210 },
  { "city" : "Jovanovac", "postal_code" : 34211 },
  { "city" : "Malo Krcmare", "postal_code" : 34212 },
  { "city" : "Veliko Krčmare", "postal_code" : 34214 },
  { "city" : "Đurdjevo", "postal_code" : 34215 },
  { "city" : "Male Pčelice", "postal_code" : 34216 },
  { "city" : "Bukurovac", "postal_code" : 34217 },
  { "city" : "Lapovo", "postal_code" : 34220 },
  { "city" : "Lapovo Selo", "postal_code" : 34223 },
  { "city" : "Korman", "postal_code" : 34224 },
  { "city" : "Resnik", "postal_code" : 34225 },
  { "city" : "Badnjevac", "postal_code" : 34226 },
  { "city" : "Batočina", "postal_code" : 34227 },
  { "city" : "Brzan", "postal_code" : 34228 },
  { "city" : "Zirovnica", "postal_code" : 34229 },
  { "city" : "Gruza", "postal_code" : 34230 },
  { "city" : "Dragobraca", "postal_code" : 34231 },
  { "city" : "Guberevac", "postal_code" : 34232 },
  { "city" : "Knić", "postal_code" : 34240 },
  { "city" : "Bumbarevo Brdo", "postal_code" : 34242 },
  { "city" : "Toponica", "postal_code" : 34243 },
  { "city" : "Zabojnica", "postal_code" : 34244 },
  { "city" : "Arandjelovac", "postal_code" : 34300 },
  { "city" : "Bukovik", "postal_code" : 34301 },
  { "city" : "Ranilovic", "postal_code" : 34302 },
  { "city" : "Arandjelovac", "postal_code" : 34303 },
  { "city" : "Banja", "postal_code" : 34304 },
  { "city" : "Darosava", "postal_code" : 34305 },
  { "city" : "Vencane", "postal_code" : 34306 },
  { "city" : "Stojnik", "postal_code" : 34307 },
  { "city" : "Orašac", "postal_code" : 34308 },
  { "city" : "Jelovik", "postal_code" : 34309 },
  { "city" : "Topola", "postal_code" : 34310 },
  { "city" : "Belosavci", "postal_code" : 34312 },
  { "city" : "Natalinci", "postal_code" : 34313 },
  { "city" : "Donja Satornja", "postal_code" : 34314 },
  { "city" : "Jarmenovci", "postal_code" : 34318 },
  { "city" : "Desimirovac", "postal_code" : 34321 },
  { "city" : "Čumić", "postal_code" : 34322 },
  { "city" : "Stragari", "postal_code" : 34323 },
  { "city" : "Lužnice", "postal_code" : 34325 },
  { "city" : "Jagodina", "postal_code" : 35000 },
  { "city" : "Siokovac", "postal_code" : 35203 },
  { "city" : "Bagrdan", "postal_code" : 35204 },
  { "city" : "Jovac", "postal_code" : 35205 },
  { "city" : "Raševica", "postal_code" : 35206 },
  { "city" : "Potočac", "postal_code" : 35207 },
  { "city" : "Vojska", "postal_code" : 35208 },
  { "city" : "Subotica Kod Svilajnca", "postal_code" : 35209 },
  { "city" : "Svilajnac", "postal_code" : 35210 },
  { "city" : "Sedlare", "postal_code" : 35211 },
  { "city" : "Plažane", "postal_code" : 35212 },
  { "city" : "Despotovac", "postal_code" : 35213 },
  { "city" : "Stenjevac", "postal_code" : 35215 },
  { "city" : "Bobovo", "postal_code" : 35217 },
  { "city" : "Končarevo", "postal_code" : 35219 },
  { "city" : "Ribare", "postal_code" : 35220 },
  { "city" : "Glogovac", "postal_code" : 35222 },
  { "city" : "Veliki Popović", "postal_code" : 35223 },
  { "city" : "Medvedja", "postal_code" : 35224 },
  { "city" : "Kušiljevo", "postal_code" : 35226 },
  { "city" : "Krušar", "postal_code" : 35227 },
  { "city" : "Supska", "postal_code" : 35228 },
  { "city" : "Ćuprija", "postal_code" : 35230 },
  { "city" : "Senje", "postal_code" : 35233 },
  { "city" : "Senjski Rudnik", "postal_code" : 35234 },
  { "city" : "Ravna Reka", "postal_code" : 35235 },
  { "city" : "Mijatovac", "postal_code" : 35236 },
  { "city" : "Resavica", "postal_code" : 35237 },
  { "city" : "Bigrenica", "postal_code" : 35238 },
  { "city" : "Jasenovo", "postal_code" : 35241 },
  { "city" : "Kolare", "postal_code" : 35242 },
  { "city" : "Plana", "postal_code" : 35247 },
  { "city" : "Trešnjevica", "postal_code" : 35248 },
  { "city" : "Busilovac", "postal_code" : 35249 },
  { "city" : "Paraćin", "postal_code" : 35250 },
  { "city" : "Popovac", "postal_code" : 35254 },
  { "city" : "Donja Mutnica", "postal_code" : 35255 },
  { "city" : "Sikirica", "postal_code" : 35256 },
  { "city" : "Drenovac", "postal_code" : 35257 },
  { "city" : "Donje Vidovo", "postal_code" : 35258 },
  { "city" : "Svojnovo", "postal_code" : 35259 },
  { "city" : "Rekovac", "postal_code" : 35260 },
  { "city" : "Glavinci", "postal_code" : 35261 },
  { "city" : "Dragoševac", "postal_code" : 35262 },
  { "city" : "Belusic", "postal_code" : 35263 },
  { "city" : "Prevešt", "postal_code" : 35264 },
  { "city" : "Dragovo", "postal_code" : 35265 },
  { "city" : "Oparić", "postal_code" : 35267 },
  { "city" : "Miloševo", "postal_code" : 35268 },
  { "city" : "Strižilo", "postal_code" : 35269 },
  { "city" : "Majur", "postal_code" : 35270 },
  { "city" : "Novo Lanište", "postal_code" : 35271 },
  { "city" : "Dragocvet", "postal_code" : 35272 },
  { "city" : "Bunar", "postal_code" : 35273 },
  { "city" : "Kraljevo", "postal_code" : 36000 },
  { "city" : "Mataruška Banja", "postal_code" : 36201 },
  { "city" : "Samaila", "postal_code" : 36202 },
  { "city" : "Adrani", "postal_code" : 36203 },
  { "city" : "Lađevci", "postal_code" : 36204 },
  { "city" : "Roćevci", "postal_code" : 36205 },
  { "city" : "Vitanovac", "postal_code" : 36206 },
  { "city" : "Vitkovac", "postal_code" : 36207 },
  { "city" : "Sirča", "postal_code" : 36208 },
  { "city" : "Vrnjačka Banja", "postal_code" : 36210 },
  { "city" : "Ratina", "postal_code" : 36212 },
  { "city" : "Vrba", "postal_code" : 36214 },
  { "city" : "Podunavci", "postal_code" : 36215 },
  { "city" : "Novo Selo", "postal_code" : 36216 },
  { "city" : "Vrnjci", "postal_code" : 36217 },
  { "city" : "Čukojevac", "postal_code" : 36220 },
  { "city" : "Zica", "postal_code" : 36221 },
  { "city" : "Rudno", "postal_code" : 36222 },
  { "city" : "Novi Pazar", "postal_code" : 36300 },
  { "city" : "Dezeva", "postal_code" : 36305 },
  { "city" : "Lukare", "postal_code" : 36306 },
  { "city" : "Delimede", "postal_code" : 36307 },
  { "city" : "Sopoćani", "postal_code" : 36308 },
  { "city" : "Ribarice", "postal_code" : 36309 },
  { "city" : "Sjenica", "postal_code" : 36310 },
  { "city" : "Štavalj", "postal_code" : 36311 },
  { "city" : "Duga Poljana", "postal_code" : 36312 },
  { "city" : "Ugao", "postal_code" : 36313 },
  { "city" : "Tutin", "postal_code" : 36320 },
  { "city" : "Crkvine", "postal_code" : 36321 },
  { "city" : "Konarevo", "postal_code" : 36340 },
  { "city" : "Bogutovac", "postal_code" : 36341 },
  { "city" : "Ušće", "postal_code" : 36342 },
  { "city" : "Studenica", "postal_code" : 36343 },
  { "city" : "Baljevac Na Ibru", "postal_code" : 36344 },
  { "city" : "Jošanicka Banja", "postal_code" : 36345 },
  { "city" : "Brvenik", "postal_code" : 36346 },
  { "city" : "Raška", "postal_code" : 36350 },
  { "city" : "Rudnica", "postal_code" : 36353 },
  { "city" : "Kopaonik", "postal_code" : 36354 },
  { "city" : "Kruševac", "postal_code" : 37000 },
  { "city" : "Parunovac", "postal_code" : 37201 },
  { "city" : "Djunis", "postal_code" : 37202 },
  { "city" : "Zdravinje", "postal_code" : 37203 },
  { "city" : "Veliki Siljegovac", "postal_code" : 37204 },
  { "city" : "Ribarska Banja", "postal_code" : 37205 },
  { "city" : "Dvorane", "postal_code" : 37206 },
  { "city" : "Veliko Golovode", "postal_code" : 37207 },
  { "city" : "Čitluk", "postal_code" : 37208 },
  { "city" : "Velika Lomnica", "postal_code" : 37209 },
  { "city" : "Ćićevac", "postal_code" : 37210 },
  { "city" : "Stalać", "postal_code" : 37212 },
  { "city" : "Vitosevac", "postal_code" : 37213 },
  { "city" : "Pojate", "postal_code" : 37214 },
  { "city" : "Ražanj", "postal_code" : 37215 },
  { "city" : "Brus", "postal_code" : 37220 },
  { "city" : "Gornji Stepos", "postal_code" : 37221 },
  { "city" : "Kupci", "postal_code" : 37222 },
  { "city" : "Razbojna", "postal_code" : 37223 },
  { "city" : "Lepenac", "postal_code" : 37224 },
  { "city" : "Brzeće", "postal_code" : 37225 },
  { "city" : "Blazevo", "postal_code" : 37226 },
  { "city" : "Milentija", "postal_code" : 37227 },
  { "city" : "Zlatari", "postal_code" : 37228 },
  { "city" : "Grasevci", "postal_code" : 37229 },
  { "city" : "Aleksandrovac", "postal_code" : 37230 },
  { "city" : "Pepeljevac", "postal_code" : 37231 },
  { "city" : "Laćisled", "postal_code" : 37232 },
  { "city" : "Velika Vrbnica", "postal_code" : 37233 },
  { "city" : "Gornji Stupanj", "postal_code" : 37234 },
  { "city" : "Trnavci", "postal_code" : 37235 },
  { "city" : "Rataje", "postal_code" : 37236 },
  { "city" : "Ploča", "postal_code" : 37237 },
  { "city" : "Ples", "postal_code" : 37238 },
  { "city" : "Šljivovo", "postal_code" : 37239 },
  { "city" : "Trstenik", "postal_code" : 37240 },
  { "city" : "Stopanja", "postal_code" : 37242 },
  { "city" : "Počekovina", "postal_code" : 37243 },
  { "city" : "Medvedja", "postal_code" : 37244 },
  { "city" : "Velika Drenova", "postal_code" : 37245 },
  { "city" : "Milutovac", "postal_code" : 37246 },
  { "city" : "Globoder", "postal_code" : 37251 },
  { "city" : "Jasika", "postal_code" : 37252 },
  { "city" : "Bela Voda", "postal_code" : 37253 },
  { "city" : "Konjuh", "postal_code" : 37254 },
  { "city" : "Kukljin", "postal_code" : 37255 },
  { "city" : "Kaonik", "postal_code" : 37256 },
  { "city" : "Padež", "postal_code" : 37257 },
  { "city" : "Donji Krcin", "postal_code" : 37258 },
  { "city" : "Ribare", "postal_code" : 37259 },
  { "city" : "Varvarin", "postal_code" : 37260 },
  { "city" : "Bosnjane", "postal_code" : 37262 },
  { "city" : "Bačina", "postal_code" : 37265 },
  { "city" : "Obrez", "postal_code" : 37266 },
  { "city" : "Dasnica", "postal_code" : 37271 },
  { "city" : "Osreci", "postal_code" : 37281 },
  { "city" : "Kriva Reka", "postal_code" : 37282 },
  { "city" : "Brezovica", "postal_code" : 38157 },
  { "city" : "Gracanica", "postal_code" : 38205 },
  { "city" : "Kosovo Polje", "postal_code" : 38210 },
  { "city" : "Prilužje", "postal_code" : 38213 },
  { "city" : "Banjska", "postal_code" : 38216 },
  { "city" : "Sočanica", "postal_code" : 38217 },
  { "city" : "Leposavić", "postal_code" : 38218 },
  { "city" : "Lešak", "postal_code" : 38219 },
  { "city" : "Kosovska Mitrovica", "postal_code" : 38220 },
  { "city" : "Zvecan", "postal_code" : 38227 },
  { "city" : "Zubin Potok", "postal_code" : 38228 },
  { "city" : "Štrpce", "postal_code" : 38236 },
  { "city" : "Drajkovce", "postal_code" : 38239 },
  { "city" : "Pasjane", "postal_code" : 38266 },
  { "city" : "Ranilug", "postal_code" : 38267 }
]